[{"OBJECT_NAME":"CUTE-1 (CO-55)","OBJECT_ID":"2003-031E","EPOCH":"2026-03-02T23:02:38.236992","MEAN_MOTION":14.24259384,"ECCENTRICITY":0.0010458,"INCLINATION":98.6778,"RA_OF_ASC_NODE":71.8426,"ARG_OF_PERICENTER":130.0831,"MEAN_ANOMALY":230.1266,"EPHEMERIS_TYPE":0,"CLASSIFICATION_TYPE":"U","NORAD_CAT_ID":27844,"ELEMENT_SET_NO":999,"REV_AT_EPOCH":17655,"BSTAR":0.00019885,"MEAN_MOTION_DOT":4.15e-6,"MEAN_MOTION_DDOT":0},{"OBJECT_NAME":"CUBESAT XI-IV (CO-57)","OBJECT_ID":"2003-031J","EPOCH":"2026-03-02T23:11:00.292704","MEAN_MOTION":14.23555571,"ECCENTRICITY":0.0010091,"INCLINATION":98.6808,"RA_OF_ASC_NODE":71.6462,"ARG_OF_PERICENTER":146.65,"MEAN_ANOMALY":213.5316,"EPHEMERIS_TYPE":0,"CLASSIFICATION_TYPE":"U","NORAD_CAT_ID":27848,"ELEMENT_SET_NO":999,"REV_AT_EPOCH":17626,"BSTAR":0.00017234,"MEAN_MOTION_DOT":3.49e-6,"MEAN_MOTION_DDOT":0},{"OBJECT_NAME":"CUBESAT XI-V","OBJECT_ID":"2005-043F","EPOCH":"2026-03-02T20:26:29.975712","MEAN_MOTION":14.72281718,"ECCENTRICITY":0.0014356,"INCLINATION":98.2814,"RA_OF_ASC_NODE":215.3472,"ARG_OF_PERICENTER":178.8167,"MEAN_ANOMALY":181.3076,"EPHEMERIS_TYPE":0,"CLASSIFICATION_TYPE":"U","NORAD_CAT_ID":28895,"ELEMENT_SET_NO":999,"REV_AT_EPOCH":8610,"BSTAR":0.00039841,"MEAN_MOTION_DOT":2.468e-5,"MEAN_MOTION_DDOT":0},{"OBJECT_NAME":"CUTE-1.7+APD II (CO-65)","OBJECT_ID":"2008-021C","EPOCH":"2026-03-03T03:29:59.842464","MEAN_MOTION":15.08255715,"ECCENTRICITY":0.0010305,"INCLINATION":97.8194,"RA_OF_ASC_NODE":41.5004,"ARG_OF_PERICENTER":38.7963,"MEAN_ANOMALY":321.4002,"EPHEMERIS_TYPE":0,"CLASSIFICATION_TYPE":"U","NORAD_CAT_ID":32785,"ELEMENT_SET_NO":999,"REV_AT_EPOCH":96920,"BSTAR":0.00055688,"MEAN_MOTION_DOT":8.575e-5,"MEAN_MOTION_DDOT":0},{"OBJECT_NAME":"CANX-2","OBJECT_ID":"2008-021H","EPOCH":"2026-03-02T22:11:06.298944","MEAN_MOTION":15.04706593,"ECCENTRICITY":0.0012259,"INCLINATION":97.8552,"RA_OF_ASC_NODE":39.7625,"ARG_OF_PERICENTER":50.8222,"MEAN_ANOMALY":309.409,"EPHEMERIS_TYPE":0,"CLASSIFICATION_TYPE":"U","NORAD_CAT_ID":32790,"ELEMENT_SET_NO":999,"REV_AT_EPOCH":96882,"BSTAR":0.00043349,"MEAN_MOTION_DOT":6.05e-5,"MEAN_MOTION_DDOT":0},{"OBJECT_NAME":"SEEDS II (CO-66)","OBJECT_ID":"2008-021J","EPOCH":"2026-03-02T22:02:10.660416","MEAN_MOTION":15.28722011,"ECCENTRICITY":0.0002722,"INCLINATION":97.7504,"RA_OF_ASC_NODE":55.0685,"ARG_OF_PERICENTER":18.9486,"MEAN_ANOMALY":341.1853,"EPHEMERIS_TYPE":0,"CLASSIFICATION_TYPE":"U","NORAD_CAT_ID":32791,"ELEMENT_SET_NO":999,"REV_AT_EPOCH":97103,"BSTAR":0.00086611,"MEAN_MOTION_DOT":0.0002416,"MEAN_MOTION_DDOT":0},{"OBJECT_NAME":"SWISSCUBE","OBJECT_ID":"2009-051B","EPOCH":"2026-03-03T04:22:13.744992","MEAN_MOTION":14.62237116,"ECCENTRICITY":0.0006633,"INCLINATION":98.4106,"RA_OF_ASC_NODE":328.2095,"ARG_OF_PERICENTER":172.0833,"MEAN_ANOMALY":188.0473,"EPHEMERIS_TYPE":0,"CLASSIFICATION_TYPE":"U","NORAD_CAT_ID":35932,"ELEMENT_SET_NO":999,"REV_AT_EPOCH":87366,"BSTAR":0.00030096,"MEAN_MOTION_DOT":1.468e-5,"MEAN_MOTION_DDOT":0},{"OBJECT_NAME":"BEESAT-1","OBJECT_ID":"2009-051C","EPOCH":"2026-03-02T17:26:39.029568","MEAN_MOTION":14.61513291,"ECCENTRICITY":0.00048247,"INCLINATION":98.4036,"RA_OF_ASC_NODE":327.6002,"ARG_OF_PERICENTER":184.8887,"MEAN_ANOMALY":175.2267,"EPHEMERIS_TYPE":0,"CLASSIFICATION_TYPE":"U","NORAD_CAT_ID":35933,"ELEMENT_SET_NO":999,"REV_AT_EPOCH":87363,"BSTAR":0.0002662726,"MEAN_MOTION_DOT":1.272e-5,"MEAN_MOTION_DDOT":0},{"OBJECT_NAME":"ITUPSAT1","OBJECT_ID":"2009-051E","EPOCH":"2026-03-03T04:09:26.416224","MEAN_MOTION":14.60250598,"ECCENTRICITY":0.0006838,"INCLINATION":98.4124,"RA_OF_ASC_NODE":327.3548,"ARG_OF_PERICENTER":199.3753,"MEAN_ANOMALY":160.7188,"EPHEMERIS_TYPE":0,"CLASSIFICATION_TYPE":"U","NORAD_CAT_ID":35935,"ELEMENT_SET_NO":999,"REV_AT_EPOCH":87326,"BSTAR":0.00024205,"MEAN_MOTION_DOT":1.119e-5,"MEAN_MOTION_DDOT":0},{"OBJECT_NAME":"TISAT 1","OBJECT_ID":"2010-035E","EPOCH":"2026-03-02T19:30:32.106240","MEAN_MOTION":15.27224236,"ECCENTRICITY":1.797e-5,"INCLINATION":98.0646,"RA_OF_ASC_NODE":359.347,"ARG_OF_PERICENTER":143.8613,"MEAN_ANOMALY":216.2636,"EPHEMERIS_TYPE":0,"CLASSIFICATION_TYPE":"U","NORAD_CAT_ID":36799,"ELEMENT_SET_NO":999,"REV_AT_EPOCH":85144,"BSTAR":0.00096803535,"MEAN_MOTION_DOT":0.0002581,"MEAN_MOTION_DDOT":0},{"OBJECT_NAME":"AEROCUBE 4.5A","OBJECT_ID":"2012-048K","EPOCH":"2026-03-03T03:01:52.387392","MEAN_MOTION":15.60602915,"ECCENTRICITY":0.0041867,"INCLINATION":64.6376,"RA_OF_ASC_NODE":42.8859,"ARG_OF_PERICENTER":214.2741,"MEAN_ANOMALY":145.5701,"EPHEMERIS_TYPE":0,"CLASSIFICATION_TYPE":"U","NORAD_CAT_ID":38767,"ELEMENT_SET_NO":999,"REV_AT_EPOCH":35596,"BSTAR":0.0011183,"MEAN_MOTION_DOT":0.00098054,"MEAN_MOTION_DDOT":0},{"OBJECT_NAME":"STRAND-1","OBJECT_ID":"2013-009E","EPOCH":"2026-03-03T02:08:27.912480","MEAN_MOTION":14.37087667,"ECCENTRICITY":0.0008639,"INCLINATION":98.3881,"RA_OF_ASC_NODE":244.9451,"ARG_OF_PERICENTER":181.0314,"MEAN_ANOMALY":179.0856,"EPHEMERIS_TYPE":0,"CLASSIFICATION_TYPE":"U","NORAD_CAT_ID":39090,"ELEMENT_SET_NO":999,"REV_AT_EPOCH":68182,"BSTAR":0.00016299,"MEAN_MOTION_DOT":4.41e-6,"MEAN_MOTION_DDOT":0},{"OBJECT_NAME":"BRITE-AUSTRIA","OBJECT_ID":"2013-009F","EPOCH":"2026-03-03T01:22:11.440704","MEAN_MOTION":14.36491289,"ECCENTRICITY":0.0009968,"INCLINATION":98.3949,"RA_OF_ASC_NODE":244.1306,"ARG_OF_PERICENTER":190.8644,"MEAN_ANOMALY":169.2329,"EPHEMERIS_TYPE":0,"CLASSIFICATION_TYPE":"U","NORAD_CAT_ID":39091,"ELEMENT_SET_NO":999,"REV_AT_EPOCH":68181,"BSTAR":0.00011028,"MEAN_MOTION_DOT":2.81e-6,"MEAN_MOTION_DDOT":0},{"OBJECT_NAME":"NEE-01 PEGASO","OBJECT_ID":"2013-018B","EPOCH":"2026-03-02T22:21:13.675392","MEAN_MOTION":14.93025625,"ECCENTRICITY":0.0013546,"INCLINATION":98.1033,"RA_OF_ASC_NODE":202.7192,"ARG_OF_PERICENTER":150.328,"MEAN_ANOMALY":209.871,"EPHEMERIS_TYPE":0,"CLASSIFICATION_TYPE":"U","NORAD_CAT_ID":39151,"ELEMENT_SET_NO":999,"REV_AT_EPOCH":69484,"BSTAR":0.00048994,"MEAN_MOTION_DOT":5.045e-5,"MEAN_MOTION_DDOT":0},{"OBJECT_NAME":"POPACS 2","OBJECT_ID":"2013-055E","EPOCH":"2026-03-02T23:38:00.418848","MEAN_MOTION":14.87389598,"ECCENTRICITY":0.0431962,"INCLINATION":80.9892,"RA_OF_ASC_NODE":265.4682,"ARG_OF_PERICENTER":174.2499,"MEAN_ANOMALY":186.3923,"EPHEMERIS_TYPE":0,"CLASSIFICATION_TYPE":"U","NORAD_CAT_ID":39269,"ELEMENT_SET_NO":999,"REV_AT_EPOCH":64740,"BSTAR":0.00049174,"MEAN_MOTION_DOT":0.00028067,"MEAN_MOTION_DDOT":0},{"OBJECT_NAME":"POPACS 3","OBJECT_ID":"2013-055F","EPOCH":"2026-03-02T05:56:32.646048","MEAN_MOTION":14.53690183,"ECCENTRICITY":0.05616889,"INCLINATION":81.0063,"RA_OF_ASC_NODE":344.9571,"ARG_OF_PERICENTER":35.2955,"MEAN_ANOMALY":328.41,"EPHEMERIS_TYPE":0,"CLASSIFICATION_TYPE":"U","NORAD_CAT_ID":39270,"ELEMENT_SET_NO":999,"REV_AT_EPOCH":62300,"BSTAR":0.00044170734,"MEAN_MOTION_DOT":0.00018351,"MEAN_MOTION_DDOT":0},{"OBJECT_NAME":"ZACUBE-1 (TSHEPISOSAT)","OBJECT_ID":"2013-066B","EPOCH":"2026-03-02T20:39:01.797408","MEAN_MOTION":15.00236927,"ECCENTRICITY":0.00415546,"INCLINATION":97.8182,"RA_OF_ASC_NODE":23.6506,"ARG_OF_PERICENTER":243.0931,"MEAN_ANOMALY":116.6044,"EPHEMERIS_TYPE":0,"CLASSIFICATION_TYPE":"U","NORAD_CAT_ID":39417,"ELEMENT_SET_NO":999,"REV_AT_EPOCH":66478,"BSTAR":0.00048380277,"MEAN_MOTION_DOT":6.102e-5,"MEAN_MOTION_DDOT":0}]
